NORAD_CAT_ID,OBJECT_NAME,OBJECT_TYPE,EPOCH,MEAN_MOTION,ECCENTRICITY,INCLINATION,RA_OF_ASC_NODE,ARG_OF_PERICENTER,MEAN_ANOMALY,BSTAR,MEAN_MOTION_DOT,MEAN_MOTION_DDOT,TLE_LINE0,TLE_LINE1,TLE_LINE2,SEMIMAJOR_AXIS,PERIOD,APOGEE,PERIGEE,DECAYED
52125.0,STARLINK-3727,PAYLOAD,2024-03-20 06:09:15,15.08838828,0.000159,53.218,58.7807,112.2324,247.8837,2.1922e-05,6.1e-07,0.0,0 STARLINK-3727,1 52125U 22029AP  24080.25643168  .00000061  00000-0  21922-4 0  9996,2 52125  53.2180  58.7807 0001590 112.2324 247.8837 15.08838828112320,6917.884,95.438,540.849,538.649,0.0
52125.0,STARLINK-3727,PAYLOAD,2024-03-21 07:35:24,15.08853908,0.0001399,53.2175,54.0196,108.1048,252.0096,8.7583e-05,1.107e-05,0.0,0 STARLINK-3727,1 52125U 22029AP  24081.31626071  .00001107  00000-0  87583-4 0  9995,2 52125  53.2175  54.0196 0001399 108.1048 252.0096 15.08853908112486,6917.838,95.437,540.671,538.735,0.0
52125.0,STARLINK-3727,PAYLOAD,2024-03-21 15:32:21,15.0883816,0.0001464,53.2183,52.5304,123.8825,236.2306,3.845e-05,3.24e-06,0.0,0 STARLINK-3727,1 52125U 22029AP  24081.64746986  .00000324  00000-0  38450-4 0  9998,2 52125  53.2183  52.5304 0001464 123.8825 236.2306 15.08838160112536,6917.886,95.438,540.764,538.738,0.0
52125.0,STARLINK-3727,PAYLOAD,2024-03-21 21:53:54,15.08836111,0.0002079,53.2167,51.3451,94.058,266.0649,1.24e-06,-2.69e-06,0.0,0 STARLINK-3727,1 52125U 22029AP  24081.91243877 -.00000269  00000-0  12400-5 0  9996,2 52125  53.2167  51.3451 0002079  94.0580 266.0649 15.08836111112577,6917.892,95.438,541.196,538.319,0.0
52125.0,STARLINK-3727,PAYLOAD,2024-03-22 04:15:27,15.08833863,0.0001581,53.217,50.1576,115.3841,244.7315,-1.369e-05,-5.06e-06,0.0,0 STARLINK-3727,1 52125U 22029AP  24082.17739877 -.00000506  00000-0 -13690-4 0  9991,2 52125  53.2170  50.1576 0001581 115.3841 244.7315 15.08833863112619,6917.899,95.438,540.858,538.67,0.0
52125.0,STARLINK-3727,PAYLOAD,2024-03-23 02:30:50,15.08849554,0.0001743,53.2184,45.9925,124.2499,235.8659,-9.2932e-06,-4.36e-06,0.0,0 STARLINK-3727,1 52125U 22029AP  24083.10474901 -.00000436  00000-0 -92932-5 0  9998,2 52125  53.2184  45.9925 0001743 124.2499 235.8659 15.08849554112753,6917.851,95.437,540.922,538.51,0.0
52125.0,STARLINK-3727,PAYLOAD,2024-03-23 21:35:30,15.088076,0.000143,53.2182,42.4266,70.1928,289.9218,8.5576e-05,1.073e-05,0.0,0 STARLINK-3727,1 52125U 22029AP  24083.89966064  .00001073  00000-0  85576-4 0  9991,2 52125  53.2182  42.4266 0001430  70.1928 289.9218 15.08807600112870,6917.979,95.44,540.834,538.855,0.0
52125.0,STARLINK-3727,PAYLOAD,2024-03-24 03:57:00,15.08860265,0.0001663,53.2187,41.2346,110.1024,250.0147,0.00026143,3.877e-05,0.0,0 STARLINK-3727,1 52125U 22029AP  24084.16458482  .00003877  00000-0  26143-3 0  9990,2 52125  53.2187  41.2346 0001663 110.1024 250.0147 15.08860265112912,6917.818,95.436,540.834,538.533,0.0
52125.0,STARLINK-3727,PAYLOAD,2024-03-24 07:07:45,15.08864632,0.0001503,53.218,40.6373,105.9366,254.1792,0.00026536,3.941e-05,0.0,0 STARLINK-3727,1 52125U 22029AP  24084.29706006  .00003941  00000-0  26536-3 0  9990,2 52125  53.2180  40.6373 0001503 105.9366 254.1792 15.08864632112937,6917.805,95.436,540.71,538.63,0.0
52125.0,STARLINK-3727,PAYLOAD,2024-03-24 21:26:16,15.08821576,0.0001436,53.2186,37.9655,104.2734,255.8418,0.00011985,1.619e-05,0.0,0 STARLINK-3727,1 52125U 22029AP  24084.89325219  .00001619  00000-0  11985-3 0  9991,2 52125  53.2186  37.9655 0001436 104.2734 255.8418 15.08821576113025,6917.937,95.439,540.795,538.808,0.0
52125.0,STARLINK-3727,PAYLOAD,2024-03-25 03:47:48,15.08840024,0.0001414,53.2184,36.7791,106.1448,253.97,0.00026108,3.87e-05,0.0,0 STARLINK-3727,1 52125U 22029AP  24085.15819970  .00003870  00000-0  26108-3 0  9997,2 52125  53.2184  36.7791 0001414 106.1448 253.9700 15.08840024113066,6917.88,95.438,540.724,538.767,0.0
52125.0,STARLINK-3727,PAYLOAD,2024-03-25 13:20:07,15.08838192,0.0001285,53.218,34.9934,103.2416,256.8719,0.00022177,3.243e-05,0.0,0 STARLINK-3727,1 52125U 22029AP  24085.55564221  .00003243  00000-0  22177-3 0  9993,2 52125  53.2180  34.9934 0001285 103.2416 256.8719 15.08838192113122,6917.886,95.438,540.64,538.862,0.0
52125.0,STARLINK-3727,PAYLOAD,2024-03-26 03:38:36,15.08840235,0.0001423,53.22,32.3177,102.287,257.8281,-0.00015335,-2.728e-05,0.0,0 STARLINK-3727,1 52125U 22029AP  24086.15181525 -.00002728  00000-0 -15335-3 0  9999,2 52125  53.2200  32.3177 0001423 102.2870 257.8281 15.08840235113219,6917.88,95.438,540.729,538.76,0.0
52125.0,STARLINK-3727,PAYLOAD,2024-03-26 13:10:54,15.08853883,0.0001292,53.2188,30.5308,81.2472,278.8667,-0.00015456,-2.748e-05,0.0,0 STARLINK-3727,1 52125U 22029AP  24086.54924346 -.00002748  00000-0 -15456-3 0  9994,2 52125  53.2188  30.5308 0001292  81.2472 278.8667 15.08853883113278,6917.838,95.437,540.597,538.809,0.0
52125.0,STARLINK-3727,PAYLOAD,2024-03-27 03:29:23,15.08844359,0.0001235,53.2192,27.8558,100.2523,259.8608,9.8207e-05,1.276e-05,0.0,0 STARLINK-3727,1 52125U 22029AP  24087.14540752  .00001276  00000-0  98207-4 0  9995,2 52125  53.2192  27.8558 0001235 100.2523 259.8608 15.08844359113367,6917.867,95.437,540.586,538.878,0.0
52125.0,STARLINK-3727,PAYLOAD,2024-03-27 13:01:41,15.08853552,0.0001243,53.2195,26.0719,97.5202,262.5931,5.9515e-05,6.6e-06,0.0,0 STARLINK-3727,1 52125U 22029AP  24087.54284027  .00000660  00000-0  59515-4 0  9994,2 52125  53.2195  26.0719 0001243  97.5202 262.5931 15.08853552113423,6917.839,95.437,540.564,538.844,0.0
52125.0,STARLINK-3727,PAYLOAD,2024-03-27 19:23:14,15.08840985,0.0001289,53.2195,24.8822,90.3076,269.8063,0.00026241,3.891e-05,0.0,0 STARLINK-3727,1 52125U 22029AP  24087.80780279  .00003891  00000-0  26241-3 0  9991,2 52125  53.2195  24.8822 0001289  90.3076 269.8063 15.08840985113460,6917.877,95.437,540.634,538.851,0.0
52125.0,STARLINK-3727,PAYLOAD,2024-03-28 04:55:31,15.08868971,0.0001208,53.2193,23.0956,95.1364,264.9766,0.00032692,4.923e-05,0.0,0 STARLINK-3727,1 52125U 22029AP  24088.20522364  .00004923  00000-0  32692-3 0  9999,2 52125  53.2193  23.0956 0001208  95.1364 264.9766 15.08868971113529,6917.792,95.436,540.493,538.821,0.0
52125.0,STARLINK-3727,PAYLOAD,2024-03-28 12:52:29,15.08839742,0.0001711,53.2194,21.613,78.1634,281.955,7.4067e-05,8.91e-06,0.0,0 STARLINK-3727,1 52125U 22029AP  24088.53644949  .00000891  00000-0  74067-4 0  9992,2 52125  53.2194  21.6130 0001711  78.1634 281.9550 15.08839742113577,6917.881,95.438,540.93,538.563,0.0
52125.0,STARLINK-3727,PAYLOAD,2024-03-29 01:35:34,15.08836927,0.0001548,53.2191,19.2342,76.9601,283.1564,-0.00013671,-2.463e-05,0.0,0 STARLINK-3727,1 52125U 22029AP  24089.06636633 -.00002463  00000-0 -13671-3 0  9994,2 52125  53.2191  19.2342 0001548  76.9601 283.1564 15.08836927113650,6917.89,95.438,540.826,538.684,0.0
52125.0,STARLINK-3727,PAYLOAD,2024-03-30 04:37:07,15.08843968,0.000143,53.219,14.1737,104.469,255.646,-5.8914e-05,-1.226e-05,0.0,0 STARLINK-3727,1 52125U 22029AP  24090.19244466 -.00001226  00000-0 -58914-4 0  9995,2 52125  53.2190  14.1737 0001430 104.4690 255.6460 15.08843968113827,6917.868,95.437,540.723,538.744,0.0
52125.0,STARLINK-3727,PAYLOAD,2024-03-30 22:06:23,15.08823299,0.0001223,53.2182,10.9032,101.8267,258.2862,0.0010315,0.00016159,0.0,0 STARLINK-3727,1 52125U 22029AP  24090.92110236  .00016159  00000-0  10315-2 0  9993,2 52125  53.2182  10.9032 0001223 101.8267 258.2862 15.08823299113933,6917.931,95.439,540.643,538.95,0.0
52125.0,STARLINK-3727,PAYLOAD,2024-03-31 04:27:54,15.0885683,0.0001588,53.2194,9.713,101.9455,258.1715,0.00041531,6.331e-05,0.0,0 STARLINK-3727,1 52125U 22029AP  24091.18604286  .00006331  00000-0  41531-3 0  9991,2 52125  53.2194   9.7130 0001588 101.9455 258.1715 15.08856830113972,6917.829,95.436,540.792,538.595,0.0
52125.0,STARLINK-3727,PAYLOAD,2024-03-31 21:57:08,15.08845152,0.0001639,53.2191,6.4416,103.0958,257.0217,0.00044026,6.727e-05,0.0,0 STARLINK-3727,1 52125U 22029AP  24091.91468513  .00006727  00000-0  44026-3 0  9994,2 52125  53.2191   6.4416 0001639 103.0958 257.0217 15.08845152114081,6917.865,95.437,540.863,538.596,0.0
52125.0,STARLINK-3727,PAYLOAD,2024-04-01 04:18:40,15.08855104,0.0001345,53.2183,5.2544,82.9373,277.1772,0.00030207,4.525e-05,0.0,0 STARLINK-3727,1 52125U 22029AP  24092.17963848  .00004525  00000-0  30207-3 0  9994,2 52125  53.2183   5.2544 0001345  82.9373 277.1772 15.08855104114123,6917.834,95.437,540.63,538.769,0.0
52125.0,STARLINK-3727,PAYLOAD,2024-04-01 10:40:13,15.08842198,0.0001458,53.2191,4.0647,93.339,266.7769,1.5566e-05,-4e-07,0.0,0 STARLINK-3727,1 52125U 22029AP  24092.44460290 -.00000040  00000-0  15566-4 0  9998,2 52125  53.2191   4.0647 0001458  93.3390 266.7769 15.08842198114166,6917.874,95.437,540.747,538.73,0.0
52125.0,STARLINK-3727,PAYLOAD,2024-04-02 10:31:00,15.08842643,0.0001317,53.218,359.6058,92.7635,267.3508,-8.2028e-06,-4.18e-06,0.0,0 STARLINK-3727,1 52125U 22029AP  24093.43819963 -.00000418  00000-0 -82028-5 0  9991,2 52125  53.2180 359.6058 0001317  92.7635 267.3508 15.08842643114318,6917.872,95.437,540.648,538.826,0.0
52125.0,STARLINK-3727,PAYLOAD,2024-04-02 23:14:06,15.0883316,0.0001529,53.2193,357.2292,95.7899,264.3268,-0.00013604,-2.452e-05,0.0,0 STARLINK-3727,1 52125U 22029AP  24093.96812831 -.00002452  00000-0 -13604-3 0  9998,2 52125  53.2193 357.2292 0001529  95.7899 264.3268 15.08833160114398,6917.901,95.438,540.824,538.709,0.0
52125.0,STARLINK-3727,PAYLOAD,2024-04-03 10:21:48,15.08836699,0.0001677,53.2205,355.1515,94.2296,265.8887,-2.8823e-05,-7.47e-06,0.0,0 STARLINK-3727,1 52125U 22029AP  24094.43180935 -.00000747  00000-0 -28823-4 0  9999,2 52125  53.2205 355.1515 0001677  94.2296 265.8887 15.08836699114467,6917.89,95.438,540.916,538.595,0.0
52125.0,STARLINK-3727,PAYLOAD,2024-04-04 02:15:40,15.08836693,0.0001851,53.2212,352.1746,100.8919,259.2282,0.00013279,1.826e-05,0.0,0 STARLINK-3727,1 52125U 22029AP  24095.09421350  .00001826  00000-0  13279-3 0  9996,2 52125  53.2212 352.1746 0001851 100.8919 259.2282 15.08836693114569,6917.89,95.438,541.036,538.475,0.0
